QIANFAN-183             
1 69401U 26125A   26185.36503242 -.01879600  00000+0 -11408+1 0  9999
2 69401  88.9946 278.5057 0015820 103.9880 256.3065 14.10085344  4130
QIANFAN-184             
1 69402U 26125B   26185.14268467  .00000106  00000+0  45748-4 0  9995
2 69402  88.9955 278.5277 0016671 118.0116 242.2761 14.16890389  4102
QIANFAN-185             
1 69403U 26125C   26185.36348973 -.01852184  00000+0 -11277+1 0  9991
2 69403  88.9949 278.5048 0017921 101.7552 258.5644 14.09839923  4136
QIANFAN-186             
1 69404U 26125D   26185.34363652 -.01936029  00000+0 -11472+1 0  9999
2 69404  88.9947 278.5036 0018664 104.5011 255.8246 14.11492785  4130
QIANFAN-187             
1 69405U 26125E   26185.40122671 -.01897655  00000+0 -10982+1 0  9997
2 69405  88.9949 278.4920 0017565 111.6357 248.6702 14.12709235  4145
QIANFAN-188             
1 69406U 26125F   26185.17446480  .00000130  00000+0  54840-4 0  9995
2 69406  88.9955 278.5136 0016561 123.4275 236.8501 14.19444320  4119
QIANFAN-189             
1 69407U 26125G   26184.68716875 -.01775348  00000+0 -10288+1 0  9996
2 69407  88.9950 278.5712 0017539 134.4028 225.8598 14.13027428  4045
QIANFAN-190             
1 69408U 26125H   26185.38696662 -.01882273  00000+0 -10874+1 0  9993
2 69408  88.9949 278.4900 0020085 118.4366 241.8847 14.12749815  4145
QIANFAN-191             
1 69409U 26125J   26185.09083724 -.01873053  00000+0 -10487+1 0  9997
2 69409  88.9945 278.5198 0016864 126.5483 233.7260 14.14461019  4106
QIANFAN-192             
1 69410U 26125K   26185.36668974 -.01990295  00000+0 -11052+1 0  9992
2 69410  88.9947 278.4871 0019485 128.7549 231.5384 14.15122180  4147
QIANFAN-193             
1 69411U 26125L   26185.35828293 -.01837507  00000+0 -10238+1 0  9995
2 69411  88.9949 278.4857 0018510 126.1048 234.1856 14.14636905  4145
QIANFAN-194             
1 69412U 26125M   26185.35217587  .00000138  00000+0  56233-4 0  9992
2 69412  88.9955 278.4846 0016087 125.0057 235.2646 14.21408413  4133
QIANFAN-195             
1 69413U 26125N   26185.34621255 -.01921030  00000+0 -10470+1 0  9998
2 69413  88.9950 278.4841 0021089 135.6564 224.6318 14.15971119  4142
QIANFAN-196             
1 69414U 26125P   26185.76254057 -.01895221  00000+0 -10521+1 0  9996
2 69414  88.9944 278.4347 0015944 128.0309 232.2320 14.14976325  4201
QIANFAN-197             
1 69415U 26125Q   26185.05147696 -.01859601  00000+0 -98648+0 0  9996
2 69415  88.9949 278.5142 0014910 145.1308 215.0861 14.17361276  4094
QIANFAN-198             
1 69416U 26125R   26185.41220957 -.01891310  00000+0 -10440+1 0  9997
2 69416  88.9950 278.4752 0016959 133.0385 227.2226 14.15267243  4153
QIANFAN-199             
1 69417U 26125S   26185.32178620 -.01923848  00000+0 -99002+0 0  9999
2 69417  88.9943 278.4789 0019211 131.4897 228.7945 14.19080547  4147
QIANFAN-200             
1 69418U 26125T   26185.30910165 -.02005905  00000+0 -11351+1 0  9994
2 69418  88.9947 278.4966 0017582 125.2996 234.9839 14.14151271  4137
CZ-8 R/B                
1 69419U 26125U   26185.71299104  .00000200  00000+0  57197-4 0  9994
2 69419  88.9976 278.3518 0068960  24.3354 336.1077 14.39873245  4245
STARLINK-37537          
1 69420U 26126A   26185.13549856  .00233597  00000+0  15240-2 0  9993
2 69420  97.2830  45.9424 0004526  57.2434 302.9267 15.75190685  5418
STARLINK-37585          
1 69421U 26126B   26185.56958289  .00569602  00000+0  35054-2 0  9999
2 69421  97.2831  46.4247 0001935 150.9547 209.1826 15.75619237  5481
STARLINK-37573          
1 69422U 26126C   26185.07512858  .00241599  00000+0  15677-2 0  9995
2 69422  97.2836  45.8726 0001127 272.2469  87.8667 15.75300896  5400
STARLINK-37820          
1 69423U 26126D   26185.34407418  .00326288  00000+0  20869-2 0  9999
2 69423  97.2836  46.2725 0001395  59.7678 300.3725 15.75400535  5456
STARLINK-37822          
1 69424U 26126E   26185.86850852  .00415456  00000+0  26347-2 0  9994
2 69424  97.2841  46.7835 0000933 256.8678 103.2483 15.75348968  5538
STARLINK-37836          
1 69425U 26126F   26185.34125244  .00252853  00000+0  16421-2 0  9990
2 69425  97.2847  46.2772 0002270  79.2590 280.8931 15.75249665  5451
STARLINK-37850          
1 69426U 26126G   26185.60029050  .00436458  00000+0  27662-2 0  9992
2 69426  97.2858  46.5366 0000882 116.2702 243.8654 15.75304899  5542
STARLINK-37823          
1 69427U 26126H   26185.87486298  .00437828  00000+0  27605-2 0  9992
2 69427  97.2824  46.7749 0002109 128.3995 231.7460 15.75423363  5533
STARLINK-37834          
1 69428U 26126J   26185.88335048  .00468881  00000+0  29334-2 0  9994
2 69428  97.2814  46.7625 0002527 122.1214 238.0297 15.75517426  5538
STARLINK-37857          
1 69429U 26126K   26185.55440964  .00253823  00000+0  16378-2 0  9995
2 69429  97.2829  46.4452 0001948 117.6242 242.5221 15.75396256  5483
STARLINK-37866          
1 69430U 26126L   26185.08502532  .00243047  00000+0  15776-2 0  9993
2 69430  97.2797  46.0114 0001251 106.5397 253.6006 15.75290516  5469
